{
    "links": {
        "self": "http://www.neowsapp.com/rest/v1/neo/3651159?api_key=iIulBulltgU6a56xZRHN4H3l9WmuAYTsLGpBGhQ2"
    },
    "id": "3651159",
    "neo_reference_id": "3651159",
    "name": "(2013 TF135)",
    "designation": "2013 TF135",
    "nasa_jpl_url": "http://ssd.jpl.nasa.gov/sbdb.cgi?sstr=3651159",
    "absolute_magnitude_h": 25.4,
    "estimated_diameter": {
        "kilometers": {
            "estimated_diameter_min": 0.022108281,
            "estimated_diameter_max": 0.0494356193
        },
        "meters": {
            "estimated_diameter_min": 22.1082810359,
            "estimated_diameter_max": 49.435619262
        },
        "miles": {
            "estimated_diameter_min": 0.0137374447,
            "estimated_diameter_max": 0.0307178602
        },
        "feet": {
            "estimated_diameter_min": 72.5337327539,
            "estimated_diameter_max": 162.1903570994
        }
    },
    "is_potentially_hazardous_asteroid": false,
    "close_approach_data": [
        {
            "close_approach_date": "2013-10-15",
            "close_approach_date_full": "2013-Oct-15 07:30",
            "epoch_date_close_approach": 1381822200000,
            "relative_velocity": {
                "kilometers_per_second": "9.8872300879",
                "kilometers_per_hour": "35594.028316524",
                "miles_per_hour": "22116.7449836757"
            },
            "miss_distance": {
                "astronomical": "0.0550267409",
                "lunar": "21.4054022101",
                "kilometers": "8231883.231681883",
                "miles": "5115055.0519126654"
            },
            "orbiting_body": "Earth"
        }
    ],
    "orbital_data": {
        "orbit_id": "6",
        "orbit_determination_date": "2017-04-06 08:44:11",
        "first_observation_date": "2013-10-12",
        "last_observation_date": "2013-10-16",
        "data_arc_in_days": 4,
        "observations_used": 32,
        "orbit_uncertainty": "8",
        "minimum_orbit_intersection": ".0546541",
        "jupiter_tisserand_invariant": "3.316",
        "epoch_osculation": "2456578.5",
        "eccentricity": ".5546810641466685",
        "semi_major_axis": "2.333860434644604",
        "inclination": "12.87652118130917",
        "ascending_node_longitude": "197.1301352797404",
        "orbital_period": "1302.299126447666",
        "perihelion_distance": "1.039312245186129",
        "perihelion_argument": "197.5068101890759",
        "aphelion_distance": "3.62840862410308",
        "perihelion_time": "2456591.990535024660",
        "mean_anomaly": "356.2707549208567",
        "mean_motion": ".2764341868077472",
        "equinox": "J2000",
        "orbit_class": {
            "orbit_class_type": "AMO",
            "orbit_class_description": "Near-Earth asteroid orbits similar to that of 1221 Amor",
            "orbit_class_range": "1.017 AU < q (perihelion) < 1.3 AU"
        }
    },
    "is_sentry_object": false
}